{"fetched_at":"2026-07-12T05:52:44.629Z","source":"https://celestrak.org/NORAD/elements/gp.php?NAME=ASTROCAST&FORMAT=JSON","constellation":"astrocast","records":[{"OBJECT_NAME":"ASTROCAST 0.1","OBJECT_ID":"2018-099AS","EPOCH":"2026-07-11T18:53:39.404832","CLASSIFICATION_TYPE":"U","MEAN_MOTION":15.51278683,"ECCENTRICITY":0.0005876,"INCLINATION":97.4385,"RA_OF_ASC_NODE":272.0791,"ARG_OF_PERICENTER":144.9859,"MEAN_ANOMALY":215.178,"EPHEMERIS_TYPE":0,"NORAD_CAT_ID":43798,"ELEMENT_SET_NO":999,"REV_AT_EPOCH":41824,"BSTAR":0.00039345,"MEAN_MOTION_DOT":0.00023019,"MEAN_MOTION_DDOT":0},{"OBJECT_NAME":"ASTROCAST-0402","OBJECT_ID":"2023-001DE","EPOCH":"2026-07-11T18:50:01.923936","CLASSIFICATION_TYPE":"U","MEAN_MOTION":15.28962835,"ECCENTRICITY":0.0006202,"INCLINATION":97.5582,"RA_OF_ASC_NODE":286.3576,"ARG_OF_PERICENTER":143.0278,"MEAN_ANOMALY":217.139,"EPHEMERIS_TYPE":0,"NORAD_CAT_ID":55109,"ELEMENT_SET_NO":999,"REV_AT_EPOCH":14829,"BSTAR":0.0001967,"MEAN_MOTION_DOT":0.00005457,"MEAN_MOTION_DDOT":0},{"OBJECT_NAME":"ASTROCAST-0401","OBJECT_ID":"2023-001DF","EPOCH":"2026-07-11T19:10:52.722048","CLASSIFICATION_TYPE":"U","MEAN_MOTION":15.28478764,"ECCENTRICITY":0.0009546,"INCLINATION":97.5565,"RA_OF_ASC_NODE":286.181,"ARG_OF_PERICENTER":118.2739,"MEAN_ANOMALY":241.9465,"EPHEMERIS_TYPE":0,"NORAD_CAT_ID":55110,"ELEMENT_SET_NO":999,"REV_AT_EPOCH":19496,"BSTAR":0.00032724,"MEAN_MOTION_DOT":0.00009006,"MEAN_MOTION_DDOT":0},{"OBJECT_NAME":"ASTROCAST-0403","OBJECT_ID":"2023-001DG","EPOCH":"2026-07-11T19:46:58.059840","CLASSIFICATION_TYPE":"U","MEAN_MOTION":15.32258963,"ECCENTRICITY":0.000446,"INCLINATION":97.5621,"RA_OF_ASC_NODE":287.5039,"ARG_OF_PERICENTER":225.4656,"MEAN_ANOMALY":134.6222,"EPHEMERIS_TYPE":0,"NORAD_CAT_ID":55111,"ELEMENT_SET_NO":999,"REV_AT_EPOCH":14833,"BSTAR":0.00044531,"MEAN_MOTION_DOT":0.00013803,"MEAN_MOTION_DDOT":0},{"OBJECT_NAME":"ASTROCAST-0404","OBJECT_ID":"2023-001DH","EPOCH":"2026-07-11T19:37:54.071616","CLASSIFICATION_TYPE":"U","MEAN_MOTION":15.28791377,"ECCENTRICITY":0.0004908,"INCLINATION":97.5671,"RA_OF_ASC_NODE":287.3209,"ARG_OF_PERICENTER":258.9595,"MEAN_ANOMALY":101.1093,"EPHEMERIS_TYPE":0,"NORAD_CAT_ID":55112,"ELEMENT_SET_NO":999,"REV_AT_EPOCH":14829,"BSTAR":0.00017499,"MEAN_MOTION_DOT":0.00004819,"MEAN_MOTION_DDOT":0}]}
