ASTROCAST 0.1           
1 43798U 18099AS  26192.78726164  .00023019  00000+0  39345-3 0  9990
2 43798  97.4385 272.0791 0005875 144.9859 215.1780 15.51278683418241
ASTROCAST-0402          
1 55109U 23001DE  26192.78474450  .00005457  00000+0  19670-3 0  9991
2 55109  97.5582 286.3576 0006201 143.0278 217.1390 15.28962835148295
ASTROCAST-0401          
1 55110U 23001DF  26192.79922133  .00009006  00000+0  32724-3 0  9999
2 55110  97.5565 286.1810 0009546 118.2739 241.9465 15.28478764194964
ASTROCAST-0403          
1 55111U 23001DG  26192.82428311  .00013803  00000+0  44531-3 0  9992
2 55111  97.5621 287.5039 0004459 225.4656 134.6222 15.32258963148334
ASTROCAST-0404          
1 55112U 23001DH  26192.81798695  .00004819  00000+0  17499-3 0  9997
2 55112  97.5671 287.3209 0004907 258.9595 101.1093 15.28791377148294
